NORAD_CAT_ID,OBJECT_NAME,OBJECT_TYPE,EPOCH,MEAN_MOTION,ECCENTRICITY,INCLINATION,RA_OF_ASC_NODE,ARG_OF_PERICENTER,MEAN_ANOMALY,BSTAR,MEAN_MOTION_DOT,MEAN_MOTION_DDOT,TLE_LINE0,TLE_LINE1,TLE_LINE2,SEMIMAJOR_AXIS,PERIOD,APOGEE,PERIGEE,DECAYED
53750.0,STARLINK-4612,PAYLOAD,2023-09-08 03:08:55,15.08843896,0.0001424,53.2163,45.4905,79.4531,280.6622,0.00013176,1.81e-05,0.0,0 STARLINK-4612,1 53750U 22107BC  23251.13119771  .00001810  00000-0  13176-3 0  9996,2 53750  53.2163  45.4905 0001424  79.4531 280.6622 15.08843896 55894,6917.868,95.437,540.719,538.748,0.0
53750.0,STARLINK-4612,PAYLOAD,2023-09-08 14:16:36,15.08851183,0.000101,53.2193,43.4056,75.7342,284.3762,0.00033734,5.087e-05,0.0,0 STARLINK-4612,1 53750U 22107BC  23251.59486682  .00005087  00000-0  33734-3 0  9996,2 53750  53.2193  43.4056 0001010  75.7342 284.3762 15.08851183 56752,6917.846,95.437,540.41,539.013,0.0
53750.0,STARLINK-4612,PAYLOAD,2023-09-08 17:27:22,15.08861021,0.0001007,53.2179,42.8118,80.3198,279.7908,0.00051486,7.92e-05,0.0,0 STARLINK-4612,1 53750U 22107BC  23251.72734848  .00007920  00000-0  51486-3 0  9993,2 53750  53.2179  42.8118 0001007  80.3198 279.7908 15.08861021 55981,6917.816,95.436,540.378,538.985,0.0
53750.0,STARLINK-4612,PAYLOAD,2023-09-08 20:38:08,15.0886837,0.0001045,53.2182,42.2165,80.8738,279.2373,0.0006108,9.454e-05,0.0,0 STARLINK-4612,1 53750U 22107BC  23251.85982484  .00009454  00000-0  61080-3 0  9993,2 53750  53.2182  42.2165 0001045  80.8738 279.2373 15.08868370 56793,6917.794,95.436,540.382,538.936,0.0
53750.0,STARLINK-4612,PAYLOAD,2023-09-09 14:07:23,15.0884894,7.32e-05,53.2181,38.9412,126.4645,233.6415,-0.00014068,-2.526e-05,0.0,0 STARLINK-4612,1 53750U 22107BC  23252.58846592 -.00002526  00000-0 -14068-3 0  9992,2 53750  53.2181  38.9412 0000732 126.4645 233.6415 15.08848940 56900,6917.853,95.437,540.224,539.212,0.0
53750.0,STARLINK-4612,PAYLOAD,2023-09-09 18:53:33,15.08852377,0.0001252,53.2178,38.0538,82.6398,277.4736,8.7036e-05,1.098e-05,0.0,0 STARLINK-4612,1 53750U 22107BC  23252.78718802  .00001098  00000-0  87036-4 0  9993,2 53750  53.2178  38.0538 0001252  82.6398 277.4736 15.08852377 56149,6917.843,95.437,540.574,538.841,0.0
53750.0,STARLINK-4612,PAYLOAD,2023-09-10 09:12:01,15.08843899,0.0001328,53.2174,35.3775,89.525,270.5895,0.0002455,3.622e-05,0.0,0 STARLINK-4612,1 53750U 22107BC  23253.38335012  .00003622  00000-0  24550-3 0  9994,2 53750  53.2174  35.3775 0001328  89.5250 270.5895 15.08843899 56234,6917.868,95.437,540.652,538.815,0.0
53750.0,STARLINK-4612,PAYLOAD,2023-09-10 13:58:10,15.08845847,0.0001286,53.2171,34.4861,89.0942,271.0197,0.00039,5.925e-05,0.0,0 STARLINK-4612,1 53750U 22107BC  23253.58206999  .00005925  00000-0  39000-3 0  9991,2 53750  53.2171  34.4861 0001286  89.0942 271.0197 15.08845847 57050,6917.863,95.437,540.617,538.838,0.0
53750.0,STARLINK-4612,PAYLOAD,2023-09-11 13:48:58,15.08839065,0.0001279,53.2179,30.0237,101.5175,258.5961,0.00011533,1.548e-05,0.0,0 STARLINK-4612,1 53750U 22107BC  23254.57567138  .00001548  00000-0  11533-3 0  9994,2 53750  53.2179  30.0237 0001279 101.5175 258.5961 15.08839065 57208,6917.883,95.438,540.633,538.863,0.0
53750.0,STARLINK-4612,PAYLOAD,2023-09-11 15:24:21,15.08841545,0.0001387,53.2176,29.7277,95.0005,265.1146,0.00016203,2.292e-05,0.0,0 STARLINK-4612,1 53750U 22107BC  23254.64191186  .00002292  00000-0  16203-3 0  9994,2 53750  53.2176  29.7277 0001387  95.0005 265.1146 15.08841545 56421,6917.876,95.437,540.7,538.781,0.0
53750.0,STARLINK-4612,PAYLOAD,2023-09-11 18:35:07,15.08848243,0.0001425,53.2181,29.1321,95.4149,264.7006,0.00028564,4.262e-05,0.0,0 STARLINK-4612,1 53750U 22107BC  23254.77439013  .00004262  00000-0  28564-3 0  9994,2 53750  53.2181  29.1321 0001425  95.4149 264.7006 15.08848243 56441,6917.855,95.437,540.706,538.734,0.0
53750.0,STARLINK-4612,PAYLOAD,2023-09-12 13:39:44,15.08851741,0.0001412,53.2188,25.561,105.9726,254.1421,0.00037058,5.617e-05,0.0,0 STARLINK-4612,1 53750U 22107BC  23255.56926774  .00005617  00000-0  37058-3 0  9990,2 53750  53.2188  25.5610 0001412 105.9726 254.1421 15.08851741 57355,6917.845,95.437,540.686,538.733,0.0
53750.0,STARLINK-4612,PAYLOAD,2023-09-12 15:15:07,15.08854365,0.0001492,53.2186,25.2638,104.9246,255.1911,0.00042186,6.435e-05,0.0,0 STARLINK-4612,1 53750U 22107BC  23255.63550690  .00006435  00000-0  42186-3 0  9995,2 53750  53.2186  25.2638 0001492 104.9246 255.1911 15.08854365 57365,6917.836,95.437,540.734,538.669,0.0
53750.0,STARLINK-4612,PAYLOAD,2023-09-13 08:44:22,15.08852795,0.0001608,53.218,21.997,71.7389,288.3778,0.00035741,5.407e-05,0.0,0 STARLINK-4612,1 53750U 22107BC  23256.36414723  .00005407  00000-0  35741-3 0  9999,2 53750  53.2180  21.9970 0001608  71.7389 288.3778 15.08852795 56687,6917.841,95.437,540.819,538.594,0.0
53750.0,STARLINK-4612,PAYLOAD,2023-09-13 13:30:31,15.0885278,0.0001437,53.2185,21.1037,85.736,274.3796,0.0002901,4.334e-05,0.0,0 STARLINK-4612,1 53750U 22107BC  23256.56286442  .00004334  00000-0  29010-3 0  9996,2 53750  53.2185  21.1037 0001437  85.7360 274.3796 15.08852780 57503,6917.841,95.437,540.7,538.712,0.0
53750.0,STARLINK-4612,PAYLOAD,2023-09-13 19:52:03,15.08862559,0.0001553,53.2196,19.9129,105.0716,255.0448,0.00038042,5.775e-05,0.0,0 STARLINK-4612,1 53750U 22107BC  23256.82781697  .00005775  00000-0  38042-3 0  9992,2 53750  53.2196  19.9129 0001553 105.0716 255.0448 15.08862559 57541,6917.811,95.436,540.751,538.602,0.0
53750.0,STARLINK-4612,PAYLOAD,2023-09-14 08:35:10,15.08821211,0.0001594,53.2187,17.5353,88.3947,271.7228,-0.00038094,-6.342e-05,0.0,0 STARLINK-4612,1 53750U 22107BC  23257.35775666 -.00006342  00000-0 -38094-3 0  9990,2 53750  53.2187  17.5353 0001594  88.3947 271.7228 15.08821211 56830,6917.938,95.439,540.906,538.7,0.0
53750.0,STARLINK-4612,PAYLOAD,2023-09-14 13:21:19,15.08820265,0.0001557,53.2189,16.6447,82.6007,277.5163,-0.0003453,-5.776e-05,0.0,0 STARLINK-4612,1 53750U 22107BC  23257.55647930 -.00005776  00000-0 -34530-3 0  9995,2 53750  53.2189  16.6447 0001557  82.6007 277.5163 15.08820265 57650,6917.941,95.439,540.883,538.729,0.0
53750.0,STARLINK-4612,PAYLOAD,2023-09-15 00:29:02,15.08824848,0.0001709,53.2211,14.5645,103.1879,256.9304,-8.7213e-05,-1.675e-05,0.0,0 STARLINK-4612,1 53750U 22107BC  23258.02016232 -.00001675  00000-0 -87213-4 0  9994,2 53750  53.2211  14.5645 0001709 103.1879 256.9304 15.08824848 56937,6917.927,95.439,540.974,538.609,0.0
53750.0,STARLINK-4612,PAYLOAD,2023-09-15 13:12:06,15.08848259,0.0001486,53.22,12.1841,90.1156,270.0006,0.00043229,6.6e-05,0.0,0 STARLINK-4612,1 53750U 22107BC  23258.55007677  .00006600  00000-0  43229-3 0  9994,2 53750  53.2200  12.1841 0001486  90.1156 270.0006 15.08848259 57807,6917.855,95.437,540.748,538.692,0.0
53750.0,STARLINK-4612,PAYLOAD,2023-09-15 16:22:53,15.08859198,0.000144,53.2196,11.5896,72.2049,287.91,0.0012224,0.0001923,0.0,0 STARLINK-4612,1 53750U 22107BC  23258.68256012  .00019230  00000-0  12224-2 0  9990,2 53750  53.2196  11.5896 0001440  72.2049 287.9100 15.08859198 57037,6917.822,95.436,540.683,538.691,0.0
53750.0,STARLINK-4612,PAYLOAD,2023-09-16 00:19:48,15.08850141,0.0001355,53.2202,10.1009,82.2082,277.9064,0.00057628,8.898e-05,0.0,0 STARLINK-4612,1 53750U 22107BC  23259.01375942  .00008898  00000-0  57628-3 0  9998,2 53750  53.2202  10.1009 0001355  82.2082 277.9064 15.08850141 57081,6917.849,95.437,540.652,538.777,0.0
53750.0,STARLINK-4612,PAYLOAD,2023-09-16 13:02:53,15.08842719,0.0001691,53.2208,7.7225,75.6896,284.4284,-5.2388e-05,-1.122e-05,0.0,0 STARLINK-4612,1 53750U 22107BC  23259.54367969 -.00001122  00000-0 -52388-4 0  9990,2 53750  53.2208   7.7225 0001691  75.6896 284.4284 15.08842719 57956,6917.872,95.437,540.907,538.567,0.0
53750.0,STARLINK-4612,PAYLOAD,2023-09-16 16:13:40,15.08844336,0.0001718,53.2208,7.128,77.1245,282.9939,0.00029851,4.466e-05,0.0,0 STARLINK-4612,1 53750U 22107BC  23259.67616137  .00004466  00000-0  29851-3 0  9998,2 53750  53.2208   7.1280 0001718  77.1245 282.9939 15.08844336 57188,6917.867,95.437,540.921,538.544,0.0
53750.0,STARLINK-4612,PAYLOAD,2023-09-17 12:53:40,15.08847591,0.0001496,53.2188,3.2648,83.0541,277.0622,0.00012955,1.775e-05,0.0,0 STARLINK-4612,1 53750U 22107BC  23260.53727783  .00001775  00000-0  12955-3 0  9992,2 53750  53.2188   3.2648 0001496  83.0541 277.0622 15.08847591 58101,6917.857,95.437,540.757,538.687,0.0
53750.0,STARLINK-4612,PAYLOAD,2023-09-18 00:01:22,15.08842273,0.0001315,53.2197,1.1797,87.8635,272.2508,7.1578e-05,8.52e-06,0.0,0 STARLINK-4612,1 53750U 22107BC  23261.00095818  .00000852  00000-0  71578-4 0  9994,2 53750  53.2197   1.1797 0001315  87.8635 272.2508 15.08842273 57380,6917.873,95.437,540.648,538.829,0.0
53750.0,STARLINK-4612,PAYLOAD,2023-09-18 12:44:28,15.08842233,0.0001452,53.2178,358.8044,89.9434,270.1725,8.2723e-05,1.029e-05,0.0,0 STARLINK-4612,1 53750U 22107BC  23261.53087967  .00001029  00000-0  82723-4 0  9999,2 53750  53.2178 358.8044 0001452  89.9434 270.1725 15.08842233 58259,6917.874,95.437,540.743,538.734,0.0
53750.0,STARLINK-4612,PAYLOAD,2023-09-18 19:05:59,15.08858609,0.0001359,53.2184,357.6136,92.0818,268.033,0.00042541,6.492e-05,0.0,0 STARLINK-4612,1 53750U 22107BC  23261.79583325  .00006492  00000-0  42541-3 0  9998,2 53750  53.2184 357.6136 0001359  92.0818 268.0330 15.08858609 58298,6917.824,95.436,540.629,538.748,0.0
53750.0,STARLINK-4612,PAYLOAD,2023-09-19 06:13:42,15.08843338,8.33e-05,53.2182,355.5343,102.8205,257.288,0.00016031,2.265e-05,0.0,0 STARLINK-4612,1 53750U 22107BC  23262.25951682  .00002265  00000-0  16031-3 0  9994,2 53750  53.2182 355.5343 0000833 102.8205 257.2880 15.08843338 57572,6917.87,95.437,540.311,539.159,0.0
53750.0,STARLINK-4612,PAYLOAD,2023-09-19 14:10:37,15.08879268,0.0001486,53.2179,354.0472,92.117,267.9992,0.0014295,0.0002256,0.0,0 STARLINK-4612,1 53750U 22107BC  23262.59070901  .00022560  00000-0  14295-2 0  9996,2 53750  53.2179 354.0472 0001486  92.1170 267.9992 15.08879268 57621,6917.76,95.435,540.653,538.597,0.0
